[{"OBJECT_NAME":"STARLINK-3357","OBJECT_ID":"2022-005AY","EPOCH":"2026-03-09T22:13:47.461728","MEAN_MOTION":15.08835112,"ECCENTRICITY":0.00012256,"INCLINATION":53.2174,"RA_OF_ASC_NODE":297.6721,"ARG_OF_PERICENTER":90.3219,"MEAN_ANOMALY":269.7914,"EPHEMERIS_TYPE":0,"CLASSIFICATION_TYPE":"U","NORAD_CAT_ID":51150,"ELEMENT_SET_NO":999,"REV_AT_EPOCH":22878,"BSTAR":1.02925e-7,"MEAN_MOTION_DOT":-2.86e-6,"MEAN_MOTION_DDOT":0},{"OBJECT_NAME":"CZ-6A DEB","OBJECT_ID":"2022-151VT","EPOCH":"2026-03-09T17:17:01.578624","MEAN_MOTION":15.13055612,"ECCENTRICITY":0.00307053,"INCLINATION":98.6048,"RA_OF_ASC_NODE":145.9599,"ARG_OF_PERICENTER":176.0049,"MEAN_ANOMALY":184.143,"EPHEMERIS_TYPE":0,"CLASSIFICATION_TYPE":"U","NORAD_CAT_ID":55202,"ELEMENT_SET_NO":999,"REV_AT_EPOCH":17179,"BSTAR":0.0062201193,"MEAN_MOTION_DOT":0.00112789,"MEAN_MOTION_DDOT":0}]
